OBJECT_NAME,OBJECT_ID,EPOCH,MEAN_MOTION,ECCENTRICITY,INCLINATION,RA_OF_ASC_NODE,ARG_OF_PERICENTER,MEAN_ANOMALY,EPHEMERIS_TYPE,CLASSIFICATION_TYPE,NORAD_CAT_ID,ELEMENT_SET_NO,REV_AT_EPOCH,BSTAR,MEAN_MOTION_DOT,MEAN_MOTION_DDOT
PERSEUS-M1,2014-033AF,2026-05-12T20:15:14.784768,14.95508185,.00128522,97.9627,76.4037,58.9907,301.2574,0,U,40039,999,64535,.1184452E-3,.1253E-4,0
POLYITAN-1,2014-033AJ,2026-05-13T01:21:38.321856,15.32019115,.00053764,98.0975,156.0281,265.7618,94.3007,0,U,40042,999,64821,.32681715E-3,.10021E-3,0
TIGRISAT,2014-033AK,2026-05-12T22:40:10.017696,14.85007400,.00492818,97.7790,283.7766,188.6468,171.3904,0,U,40043,999,64039,.17060331E-3,.1431E-4,0
AEROCUBE 6A,2014-033AM,2026-05-13T00:27:58.853952,14.97708504,.0040261,97.7215,300.3595,131.6748,228.7932,0,U,40045,999,64135,.37187906E-3,.4371E-4,0
AEROCUBE 6B,2014-033AN,2026-05-13T04:32:19.904928,14.99130765,.00379701,97.7170,300.2472,124.5789,235.9026,0,U,40046,999,64151,.31134594E-3,.3781E-4,0
CANX-4,2014-034C,2026-05-13T02:12:55.368864,14.81197459,.00138885,98.3171,7.1106,120.8314,239.4266,0,U,40055,999,63933,.77895844E-4,.55E-5,0
CANX-5,2014-034D,2026-05-13T02:11:14.985024,14.81214474,.00138945,98.3172,7.1507,121.0302,239.2276,0,U,40056,999,63014,.77615429E-4,.548E-5,0
UKUBE-1,2014-037F,2026-05-13T06:06:51.814368,15.12976287,.00004271,98.4245,132.8749,64.0574,296.0698,0,U,40074,999,64327,.26068818E-3,.4521E-4,0
BRITE-PL2 (HEWELIUSZ),2014-049B,2026-05-13T00:32:09.356064,14.94457696,.00131092,97.9057,244.7627,222.1055,137.9159,0,U,40119,999,63619,.74386552E-4,.744E-5,0
AEROCUBE 5C,2015-058B,2026-05-13T00:47:04.157664,14.91248892,.01297956,64.7690,11.9373,77.0915,284.4657,0,U,40965,999,36041,.18717417E-3,.2014E-4,0
AEROCUBE 7,2015-058C,2026-05-12T23:52:33.522816,14.95445875,.01196031,64.7636,355.0232,75.8011,285.6355,0,U,40966,999,36069,.24644108E-3,.2972E-4,0
FOX-1A (AO-85),2015-058D,2026-05-13T03:15:38.176128,14.90756995,.01289858,64.7769,27.8942,70.3373,291.1605,0,U,40967,999,10834,.18869103E-3,.2E-4,0
SINOD-D 1,2015-058E,2026-05-13T01:03:08.193312,14.95623695,.01174758,64.7766,8.9440,67.1657,294.1813,0,U,40968,999,11140,.23539125E-3,.283E-4,0
SNAP-3 ALICE,2015-058G,2026-05-12T09:06:33.108768,15.53340210,.0032768,64.7532,226.9821,30.9340,329.3724,0,U,40970,999,11131,.79509E-3,.51771E-3,0
LMRST-SAT,2015-058H,2026-05-13T03:35:09.769632,14.90382370,.01307768,64.7775,24.1244,72.3606,289.1737,0,U,40971,999,10833,.18660367E-3,.1964E-4,0
SNAP-3 EDDIE,2015-058J,2026-05-12T20:19:54.950592,15.54530871,.0033276,64.7453,216.3592,34.4338,325.8951,0,U,40972,999,11352,.76454881E-3,.52043E-3,0
PROPCUBE 3,2015-058K,2026-05-13T01:40:25.886784,14.94012121,.01229359,64.7701,2.2358,73.9002,287.5606,0,U,40973,999,10955,.22188327E-3,.2573E-4,0
BISONSAT,2015-058L,2026-05-12T19:15:07.475904,15.15462139,.00787165,64.7595,287.9745,62.5712,298.3390,0,U,40974,999,11025,.39633869E-3,.7942E-4,0
SNAP-3 JIMI,2015-058M,2026-05-12T23:16:42.727008,15.01929999,.01049345,64.7659,331.1663,69.9706,291.2672,0,U,40975,999,10893,.29162938E-3,.4121E-4,0
PROPCUBE 1 (FLORA),2015-058N,2026-05-13T03:20:34.502208,14.89015947,.01295832,64.7760,43.8406,74.6421,286.8966,0,U,40976,999,11104,.17989187E-3,.181E-4,0
SINOD-D 3,2015-058P,2026-05-13T02:17:19.973184,14.93740217,.01180705,64.7741,25.3765,72.1592,289.2359,0,U,40977,999,10951,.24436487E-3,.2797E-4,0
HORYU-4,2016-012D,2026-05-12T20:48:56.750400,15.78006687,.0005461,30.9892,334.3982,23.8940,336.1970,0,U,41340,999,56520,.74881E-3,.135031E-2,0
RAVAN,2016-067B,2026-05-12T22:12:56.323296,15.51411029,.0007232,97.9946,18.5175,120.1704,240.0263,0,U,41849,999,52222,.51015E-3,.30048E-3,0
CELTEE 1,2016-067C,2026-05-12T01:17:30.486048,15.19318741,.00018418,98.0723,356.1585,60.3871,299.7545,0,U,41850,999,52039,.14983376E-3,.3086E-4,0
OPTICUBE 04,2016-067D,2026-05-13T00:20:42.987552,15.09505335,.00144526,98.0737,343.4603,233.7332,126.2560,0,U,41851,999,51986,.83724324E-4,.1273E-4,0
AEROCUBE 8D,2016-067E,2026-05-13T02:19:47.644608,15.23893234,.00019567,98.0735,0.6055,245.4466,114.6565,0,U,41852,999,52072,.20793506E-3,.4939E-4,0
AEROCUBE 8C,2016-067F,2026-05-12T09:43:52.716864,15.24123976,.0005476,98.0607,357.1359,168.8426,191.2932,0,U,41853,999,52061,.18565E-3,.4433E-4,0
CORVUS BC2,2017-042X,2026-05-13T04:24:02.738592,15.06067124,.00119423,97.4037,295.9077,226.6476,133.3757,0,U,42846,999,48179,.14681804E-3,.2087E-4,0
CORVUS BC1,2017-042Y,2026-05-12T23:35:01.242528,15.06238717,.00113096,97.4070,296.5060,201.2358,158.8402,0,U,42847,999,48179,.1538888E-3,.22E-4,0
MAKERSAT 0,2017-073D,2026-05-12T04:12:10.429344,15.30547279,.01118347,97.4681,14.4471,41.9670,319.0072,0,U,43016,999,46095,.44166751E-3,.15764E-3,0
